start=new Date('2022-08-11T00:00:00.000Z').valueOf();
sats=[{"GP_ID":"209965479","ECCENTRICITY":"0.00013590","ELEMENT_SET_NO":"999","LAUNCH_DATE":"2020-01-29","NORAD_CAT_ID":"45098","EPHEMERIS_TYPE":"0","APOAPSIS":"548.169","DECAY_DATE":null,"COUNTRY_CODE":"US","EPOCH":"2022-08-09T21:12:49.850784","PERIAPSIS":"546.287","INCLINATION":"53.0537","TIME_SYSTEM":"UTC","ARG_OF_PERICENTER":"106.6833","FILE":"3533800","MEAN_ANOMALY":"253.4305","BSTAR":"-0.00032016000000","REV_AT_EPOCH":"13990","OBJECT_TYPE":"PAYLOAD","CLASSIFICATION_TYPE":"U","TLE_LINE2":"2 45098  53.0537 357.5770 0001359 106.6833 253.4305 15.06395176139907","OBJECT_NAME":"STARLINK-1184","SITE":"AFETR","REF_FRAME":"TEME","RCS_SIZE":"LARGE","MEAN_ELEMENT_THEORY":"SGP4","SEMIMAJOR_AXIS":"6925.363","MEAN_MOTION_DOT":"-0.00005046","MEAN_MOTION":"15.06395176","PERIOD":"95.592","OBJECT_ID":"2020-006BG","MEAN_MOTION_DDOT":"0.0000000000000","TLE_LINE1":"1 45098U 20006BG  22221.88391031 -.00005046  00000-0 -32016-3 0  9998","RA_OF_ASC_NODE":"357.5770","CENTER_NAME":"EARTH"},{"MEAN_MOTION":"15.06386550","MEAN_MOTION_DOT":"-0.00003560","SEMIMAJOR_AXIS":"6925.390","TLE_LINE1":"1 45099U 20006BH  22222.71326959 -.00003560  00000-0 -22033-3 0  9996","RA_OF_ASC_NODE":"353.8768","CENTER_NAME":"EARTH","PERIOD":"95.593","OBJECT_ID":"2020-006BH","MEAN_MOTION_DDOT":"0.0000000000000","CLASSIFICATION_TYPE":"U","TLE_LINE2":"2 45099  53.0564 353.8768 0001353  87.9210 272.1934 15.06386550140036","OBJECT_NAME":"STARLINK-1186","RCS_SIZE":"LARGE","MEAN_ELEMENT_THEORY":"SGP4","SITE":"AFETR","REF_FRAME":"TEME","PERIAPSIS":"546.318","EPOCH":"2022-08-10T17:07:06.492576","MEAN_ANOMALY":"272.1934","BSTAR":"-0.00022033000000","REV_AT_EPOCH":"14003","OBJECT_TYPE":"PAYLOAD","INCLINATION":"53.0564","TIME_SYSTEM":"UTC","FILE":"3533963","ARG_OF_PERICENTER":"87.9210","ELEMENT_SET_NO":"999","GP_ID":"209992519","ECCENTRICITY":"0.00013530","EPHEMERIS_TYPE":"0","APOAPSIS":"548.192","DECAY_DATE":null,"COUNTRY_CODE":"US","LAUNCH_DATE":"2020-01-29","NORAD_CAT_ID":"45099"},{"ELEMENT_SET_NO":"999","ECCENTRICITY":"0.00013430","GP_ID":"209992769","APOAPSIS":"548.187","DECAY_DATE":null,"COUNTRY_CODE":"US","EPHEMERIS_TYPE":"0","NORAD_CAT_ID":"45100","LAUNCH_DATE":"2020-01-29","PERIAPSIS":"546.327","EPOCH":"2022-08-10T19:25:06.636576","OBJECT_TYPE":"PAYLOAD","BSTAR":"-0.00017075000000","MEAN_ANOMALY":"275.3510","REV_AT_EPOCH":"14004","ARG_OF_PERICENTER":"84.7632","FILE":"3533963","INCLINATION":"53.0559","TIME_SYSTEM":"UTC","TLE_LINE2":"2 45100  53.0559 353.4451 0001343  84.7632 275.3510 15.06385839140045","OBJECT_NAME":"STARLINK-1193","CLASSIFICATION_TYPE":"U","MEAN_ELEMENT_THEORY":"SGP4","RCS_SIZE":"LARGE","REF_FRAME":"TEME","SITE":"AFETR","MEAN_MOTION":"15.06385839","SEMIMAJOR_AXIS":"6925.392","MEAN_MOTION_DOT":"-0.00002823","RA_OF_ASC_NODE":"353.4451","CENTER_NAME":"EARTH","TLE_LINE1":"1 45100U 20006BJ  22222.80910459 -.00002823  00000-0 -17075-3 0  9994","MEAN_MOTION_DDOT":"0.0000000000000","PERIOD":"95.593","OBJECT_ID":"2020-006BJ"},{"OBJECT_TYPE":"PAYLOAD","BSTAR":"-0.00019323000000","REV_AT_EPOCH":"14004","MEAN_ANOMALY":"268.3534","FILE":"3533963","ARG_OF_PERICENTER":"91.7601","TIME_SYSTEM":"UTC","INCLINATION":"53.0562","PERIAPSIS":"546.400","EPOCH":"2022-08-10T19:18:26.896608","DECAY_DATE":null,"COUNTRY_CODE":"US","APOAPSIS":"548.163","EPHEMERIS_TYPE":"0","NORAD_CAT_ID":"45101","LAUNCH_DATE":"2020-01-29","ELEMENT_SET_NO":"999","ECCENTRICITY":"0.00012730","GP_ID":"209994018","CENTER_NAME":"EARTH","RA_OF_ASC_NODE":"353.4342","TLE_LINE1":"1 45101U 20006BK  22222.80447797 -.00003157  00000-0 -19323-3 0  9994","MEAN_MOTION_DDOT":"0.0000000000000","OBJECT_ID":"2020-006BK","PERIOD":"95.594","MEAN_MOTION":"15.06377802","SEMIMAJOR_AXIS":"6925.417","MEAN_MOTION_DOT":"-0.00003157","MEAN_ELEMENT_THEORY":"SGP4","RCS_SIZE":"LARGE","REF_FRAME":"TEME","SITE":"AFETR","OBJECT_NAME":"STARLINK-1194","TLE_LINE2":"2 45101  53.0562 353.4342 0001273  91.7601 268.3534 15.06377802140044","CLASSIFICATION_TYPE":"U"},{"RCS_SIZE":"LARGE","MEAN_ELEMENT_THEORY":"SGP4","SITE":"AFETR","REF_FRAME":"TEME","CLASSIFICATION_TYPE":"U","TLE_LINE2":"2 45102  53.0559 353.3516 0001612 101.4951 258.6219 15.06388303140047","OBJECT_NAME":"STARLINK-1195","TLE_LINE1":"1 45102U 20006BL  22222.82753468 -.00003075  00000-0 -18770-3 0  9996","RA_OF_ASC_NODE":"353.3516","CENTER_NAME":"EARTH","PERIOD":"95.593","OBJECT_ID":"2020-006BL","MEAN_MOTION_DDOT":"0.0000000000000","MEAN_MOTION":"15.06388303","SEMIMAJOR_AXIS":"6925.384","MEAN_MOTION_DOT":"-0.00003075","EPHEMERIS_TYPE":"0","APOAPSIS":"548.366","DECAY_DATE":null,"COUNTRY_CODE":"US","LAUNCH_DATE":"2020-01-29","NORAD_CAT_ID":"45102","ELEMENT_SET_NO":"999","GP_ID":"209994247","ECCENTRICITY":"0.00016120","REV_AT_EPOCH":"14004","BSTAR":"-0.00018770000000","MEAN_ANOMALY":"258.6219","OBJECT_TYPE":"PAYLOAD","INCLINATION":"53.0559","TIME_SYSTEM":"UTC","ARG_OF_PERICENTER":"101.4951","FILE":"3533963","PERIAPSIS":"546.133","EPOCH":"2022-08-10T19:51:38.996352"},{"MEAN_MOTION_DDOT":"0.0000000000000","PERIOD":"95.593","OBJECT_ID":"2020-006BM","RA_OF_ASC_NODE":"353.5063","CENTER_NAME":"EARTH","TLE_LINE1":"1 45103U 20006BM  22222.79340755 -.00002547  00000-0 -15220-3 0  9994","MEAN_MOTION_DOT":"-0.00002547","SEMIMAJOR_AXIS":"6925.389","MEAN_MOTION":"15.06386822","REF_FRAME":"TEME","SITE":"AFETR","MEAN_ELEMENT_THEORY":"SGP4","RCS_SIZE":"LARGE","TLE_LINE2":"2 45103  53.0510 353.5063 0001388 112.9912 247.1223 15.06386822140040","OBJECT_NAME":"STARLINK-1196","CLASSIFICATION_TYPE":"U","FILE":"3533963","ARG_OF_PERICENTER":"112.9912","INCLINATION":"53.0510","TIME_SYSTEM":"UTC","OBJECT_TYPE":"PAYLOAD","MEAN_ANOMALY":"247.1223","BSTAR":"-0.00015220000000","REV_AT_EPOCH":"14004","EPOCH":"2022-08-10T19:02:30.412320","PERIAPSIS":"546.293","NORAD_CAT_ID":"45103","LAUNCH_DATE":"2020-01-29","APOAPSIS":"548.215","COUNTRY_CODE":"US","DECAY_DATE":null,"EPHEMERIS_TYPE":"0","ECCENTRICITY":"0.00013880","GP_ID":"209993018","ELEMENT_SET_NO":"999"},{"OBJECT_NAME":"STARLINK-1138","TLE_LINE2":"2 45178  53.0549 153.2825 0001782  64.9830 295.1344 15.06393147137803","CLASSIFICATION_TYPE":"U","REF_FRAME":"TEME","SITE":"AFETR","MEAN_ELEMENT_THEORY":"SGP4","RCS_SIZE":"LARGE","SEMIMAJOR_AXIS":"6925.370","MEAN_MOTION_DOT":"-0.00001812","MEAN_MOTION":"15.06393147","MEAN_MOTION_DDOT":"0.0000000000000","OBJECT_ID":"2020-012A","PERIOD":"95.593","CENTER_NAME":"EARTH","RA_OF_ASC_NODE":"153.2825","TLE_LINE1":"1 45178U 20012A   22222.84595163 -.00001812  00000-0 -10279-3 0  9997","ECCENTRICITY":"0.00017820","GP_ID":"209993274","ELEMENT_SET_NO":"999","NORAD_CAT_ID":"45178","LAUNCH_DATE":"2020-02-17","DECAY_DATE":null,"COUNTRY_CODE":"US","APOAPSIS":"548.469","EPHEMERIS_TYPE":"0","EPOCH":"2022-08-10T20:18:10.220832","PERIAPSIS":"546.000","FILE":"3533963","ARG_OF_PERICENTER":"64.9830","TIME_SYSTEM":"UTC","INCLINATION":"53.0549","OBJECT_TYPE":"PAYLOAD","MEAN_ANOMALY":"295.1344","BSTAR":"-0.00010279000000","REV_AT_EPOCH":"13780"},{"EPHEMERIS_TYPE":"0","APOAPSIS":"548.319","DECAY_DATE":null,"COUNTRY_CODE":"US","LAUNCH_DATE":"2020-02-17","NORAD_CAT_ID":"45179","ELEMENT_SET_NO":"999","GP_ID":"209965487","ECCENTRICITY":"0.00015560","REV_AT_EPOCH":"13778","BSTAR":"-0.00012536000000","MEAN_ANOMALY":"292.8726","OBJECT_TYPE":"PAYLOAD","INCLINATION":"53.0557","TIME_SYSTEM":"UTC","ARG_OF_PERICENTER":"67.2428","FILE":"3533800","PERIAPSIS":"546.164","EPOCH":"2022-08-10T07:37:48.498816","RCS_SIZE":"LARGE","MEAN_ELEMENT_THEORY":"SGP4","SITE":"AFETR","REF_FRAME":"TEME","CLASSIFICATION_TYPE":"U","TLE_LINE2":"2 45179  53.0557 155.6266 0001556  67.2428 292.8726 15.06390995137789","OBJECT_NAME":"STARLINK-1143","TLE_LINE1":"1 45179U 20012B   22222.31792244 -.00002148  00000-0 -12536-3 0  9990","RA_OF_ASC_NODE":"155.6266","CENTER_NAME":"EARTH","PERIOD":"95.593","OBJECT_ID":"2020-012B","MEAN_MOTION_DDOT":"0.0000000000000","MEAN_MOTION":"15.06390995","SEMIMAJOR_AXIS":"6925.376","MEAN_MOTION_DOT":"-0.00002148"},{"MEAN_MOTION":"15.10794788","MEAN_MOTION_DOT":"0.00013316","SEMIMAJOR_AXIS":"6911.912","CENTER_NAME":"EARTH","RA_OF_ASC_NODE":"153.5244","TLE_LINE1":"1 45180U 20012C   22222.18920939  .00013316  00000-0  80874-3 0  9998","MEAN_MOTION_DDOT":"0.0000000000000","OBJECT_ID":"2020-012C","PERIOD":"95.314","OBJECT_NAME":"STARLINK-1192","TLE_LINE2":"2 45180  53.0511 153.5244 0001771 103.1549 256.9639 15.10794788137807","CLASSIFICATION_TYPE":"U","MEAN_ELEMENT_THEORY":"SGP4","RCS_SIZE":"LARGE","REF_FRAME":"TEME","SITE":"AFETR","PERIAPSIS":"532.553","EPOCH":"2022-08-10T04:32:27.691296","OBJECT_TYPE":"PAYLOAD","BSTAR":"0.00080874000000","MEAN_ANOMALY":"256.9639","REV_AT_EPOCH":"13780","ARG_OF_PERICENTER":"103.1549","FILE":"3533800","TIME_SYSTEM":"UTC","INCLINATION":"53.0511","ELEMENT_SET_NO":"999","ECCENTRICITY":"0.00017710","GP_ID":"209966241","DECAY_DATE":null,"COUNTRY_CODE":"US","APOAPSIS":"535.001","EPHEMERIS_TYPE":"0","NORAD_CAT_ID":"45180","LAUNCH_DATE":"2020-02-17"},{"EPHEMERIS_TYPE":"0","APOAPSIS":"548.322","DECAY_DATE":null,"COUNTRY_CODE":"US","LAUNCH_DATE":"2020-02-17","NORAD_CAT_ID":"45181","ELEMENT_SET_NO":"999","GP_ID":"209965984","ECCENTRICITY":"0.00015350","REV_AT_EPOCH":"13778","BSTAR":"-0.00009440000000","MEAN_ANOMALY":"288.8627","OBJECT_TYPE":"PAYLOAD","INCLINATION":"53.0550","TIME_SYSTEM":"UTC","ARG_OF_PERICENTER":"71.2529","FILE":"3533800","PERIAPSIS":"546.196","EPOCH":"2022-08-10T07:17:56.274720","RCS_SIZE":"LARGE","MEAN_ELEMENT_THEORY":"SGP4","SITE":"AFETR","REF_FRAME":"TEME","CLASSIFICATION_TYPE":"U","TLE_LINE2":"2 45181  53.0550 155.7149 0001535  71.2529 288.8627 15.06385029137787","OBJECT_NAME":"STARLINK-1200","TLE_LINE1":"1 45181U 20012D   22222.30412355 -.00001687  00000-0 -94400-4 0  9992","RA_OF_ASC_NODE":"155.7149","CENTER_NAME":"EARTH","PERIOD":"95.593","OBJECT_ID":"2020-012D","MEAN_MOTION_DDOT":"0.0000000000000","MEAN_MOTION":"15.06385029","MEAN_MOTION_DOT":"-0.00001687","SEMIMAJOR_AXIS":"6925.394"}];
